[
    {
        "Altitude(m)": 604969.089195197,
        "Argument of Periapsis(deg)": 0.0,
        "Eccentricity": 0.0,
        "Inclination(deg)": 60.0,
        "Latitude(deg)": -0.09270983300954082,
        "Longitude(deg)": -35.02247225027442,
        "Mean Anomaly(deg)": 0.0,
        "RAAN(deg)": 65.0,
        "Satellite Name": "Test1 286",
        "Satellite Number": 286,
        "Semi-Major Axis(m)": 6980739.136638005,
        "Time(s)": 0
    },
    {
        "Altitude(m)": 604900.0283509203,
        "Argument of Periapsis(deg)": 0.00010418945913296404,
        "Eccentricity": 0.0,
        "Inclination(deg)": 60.0,
        "Latitude(deg)": 0.4477164869056532,
        "Longitude(deg)": -34.75435006718608,
        "Mean Anomaly(deg)": 0.6201061454618275,
        "RAAN(deg)": 64.99957995086025,
        "Satellite Name": "Test1 286",
        "Satellite Number": 286,
        "Semi-Major Axis(m)": 6980739.136638005,
        "Time(s)": 10
    }
]